NORAD_CAT_ID,OBJECT_NAME,OBJECT_TYPE,EPOCH,MEAN_MOTION,ECCENTRICITY,INCLINATION,RA_OF_ASC_NODE,ARG_OF_PERICENTER,MEAN_ANOMALY,BSTAR,MEAN_MOTION_DOT,MEAN_MOTION_DDOT,TLE_LINE0,TLE_LINE1,TLE_LINE2,SEMIMAJOR_AXIS,PERIOD,APOGEE,PERIGEE,DECAYED
53920.0,STARLINK-5025,PAYLOAD,2022-12-19 04:00:00,15.21181875,0.0001374,53.2172,195.7363,83.5266,136.0932,-0.055263,-0.01150472,0.0,0 STARLINK-5025,1 53920U 22119AL  22353.16667824 -.01150472  00000-0 -55263-1 0  9993,2 53920  53.2172 195.7363 0001374  83.5266 136.0932 15.21181875 13782,6880.4119999999975,94.663,503.222,501.331,0.0
53920.0,STARLINK-5025,PAYLOAD,2022-12-19 10:00:00,15.20570119,0.0001334,53.2174,194.5918,82.4715,66.6867,-0.056146,-0.01148168,0.0,0 STARLINK-5025,1 53920U 22119AL  22353.41667824 -.01148168  00000-0 -56146-1 0  9991,2 53920  53.2174 194.5918 0001334  82.4715  66.6867 15.20570119  1302,6882.257,94.701,505.04,503.204,0.0
53920.0,STARLINK-5025,PAYLOAD,2022-12-19 22:00:00,15.193509900000002,0.0001205,53.2175,192.3103,81.2831,285.2975,-0.058305,-0.0115029,0.0,0 STARLINK-5025,1 53920U 22119AL  22353.91667824 -.01150290  00000-0 -58305-1 0  9994,2 53920  53.2175 192.3103 0001205  81.2831 285.2975 15.19350990 13907,6885.938,94.777,508.633,506.973,0.0
53920.0,STARLINK-5025,PAYLOAD,2022-12-20 14:00:01,15.17735137,0.0001262999999999,53.2167,189.271,90.466,322.5861,-0.06199,-0.01165616,0.0,0 STARLINK-5025,1 53920U 22119AL  22354.58334491 -.01165616  00000-0 -61990-1 0  9991,2 53920  53.2167 189.2710 0001263  90.4660 322.5861 15.17735137  1301,6890.824000000001,94.878,513.56,511.819,0.0
53920.0,STARLINK-5025,PAYLOAD,2022-12-20 22:00:01,15.1691967,0.0001295,53.2169,187.7567,99.4829,335.4041,-0.063385,-0.01164248,0.0,0 STARLINK-5025,1 53920U 22119AL  22354.91668981 -.01164248  00000-0 -63385-1 0  9992,2 53920  53.2169 187.7567 0001295  99.4829 335.4041 15.16919670 14051,6893.294,94.929,516.0509999999998,514.266,0.0
53920.0,STARLINK-5025,PAYLOAD,2022-12-21 14:00:01,15.1528003,0.0001339,53.2177,184.7282,88.5193,26.9206,-0.065312,-0.01146093,0.0,0 STARLINK-5025,1 53920U 22119AL  22355.58334491 -.01146093  00000-0 -65312-1 0  9992,2 53920  53.2177 184.7282 0001339  88.5193  26.9206 15.15280030  1302,6898.266,95.032,521.054,519.207,0.0
53920.0,STARLINK-5025,PAYLOAD,2022-12-21 22:00:00,15.1446633,0.000138,53.2176,183.2196,86.4267,47.8503,-0.066876,-0.01146634,0.0,0 STARLINK-5025,1 53920U 22119AL  22355.91667824 -.01146634  00000-0 -66876-1 0  9995,2 53920  53.2176 183.2196 0001380  86.4267  47.8503 15.14466330 14207,6900.736,95.083,523.554,521.649,0.0
53920.0,STARLINK-5025,PAYLOAD,2022-12-22 14:00:01,15.12838658,0.0001435,53.2178,180.203,93.3361,75.6841,-0.069969,-0.01145791,0.0,0 STARLINK-5025,1 53920U 22119AL  22356.58334491 -.01145791  00000-0 -69969-1 0  9999,2 53920  53.2178 180.2030 0001435  93.3361  75.6841 15.12838658  1301,6905.685,95.185,528.5409999999998,526.559,0.0
53920.0,STARLINK-5025,PAYLOAD,2022-12-22 22:00:00,15.12023413,0.0001439,53.2176,178.6999,89.4295,95.4947,-0.071436,-0.01143525,0.0,0 STARLINK-5025,1 53920U 22119AL  22356.91667824 -.01143525  00000-0 -71436-1 0  9990,2 53920  53.2176 178.6999 0001439  89.4295  95.4947 15.12023413 14351,6908.167,95.237,531.026,529.038,0.0
53920.0,STARLINK-5025,PAYLOAD,2022-12-23 00:00:00,15.11820299,0.0001307,53.2173,178.3239,95.5359,183.2111,-0.0718179999999999,-0.01143127,0.0,0 STARLINK-5025,1 53920U 22119AL  22357.00001157 -.01143127  00000-0 -71818-1 0  9994,2 53920  53.2173 178.3239 0001307  95.5359 183.2111 15.11820299  1301,6908.786,95.249,531.554,529.748,0.0
53920.0,STARLINK-5025,PAYLOAD,2022-12-23 14:00:01,15.10404525,0.0001473,53.2165,175.6946,94.6722,119.1245,-0.07572,-0.01157399,0.0,0 STARLINK-5025,1 53920U 22119AL  22357.58334491 -.01157399  00000-0 -75720-1 0  9999,2 53920  53.2165 175.6946 0001473  94.6722 119.1245 15.10404525  1300,6913.102,95.339,535.986,533.9490000000002,0.0
53920.0,STARLINK-5025,PAYLOAD,2022-12-23 22:00:01,15.09463223,0.0001557,53.2167,174.1972,92.0688,134.7769,-0.046513,-0.0070217,0.0,0 STARLINK-5025,1 53920U 22119AL  22357.91668981 -.00702170  00000-0 -46513-1 0  9990,2 53920  53.2167 174.1972 0001557  92.0688 134.7769 15.09463223 14509,6915.976,95.398,538.918,536.764,0.0
53920.0,STARLINK-5025,PAYLOAD,2022-12-24 06:00:00,15.08957398,0.0001406999999999,53.2162,172.6987,96.5593,142.2215,-0.011707,-0.00182506,0.0,0 STARLINK-5025,1 53920U 22119AL  22358.25001157 -.00182506  00000-0 -11707-1 0  9996,2 53920  53.2162 172.6987 0001407  96.5593 142.2215 15.08957398 14556,6917.522,95.43,540.36,538.413,0.0
53920.0,STARLINK-5025,PAYLOAD,2022-12-24 14:00:01,15.08867907,0.0001477,53.2121,171.2025,101.9553,148.4976,-0.0023821,-0.00038028,0.0,0 STARLINK-5025,1 53920U 22119AL  22358.58334491 -.00038028  00000-0 -23821-2 0  9992,2 53920  53.2121 171.2025 0001477 101.9553 148.4976 15.08867907 14607,6917.795,95.436,540.682,538.638,0.0
53920.0,STARLINK-5025,PAYLOAD,2022-12-24 22:00:00,15.08826536,0.0001501999999999,53.2136,169.7073,92.0046,170.0599,0.0011789,0.00018517,0.0,0 STARLINK-5025,1 53920U 22119AL  22358.91667824  .00018517  00000-0  11789-2 0  9997,2 53920  53.2136 169.7073 0001502  92.0046 170.0599 15.08826536  1302,6917.922,95.438,540.826,538.747,0.0
53920.0,STARLINK-5025,PAYLOAD,2022-12-25 14:00:01,15.0879737,0.0001691,53.2145,166.7131,99.3237,185.8758,-0.00040428,-6.709e-05,0.0,0 STARLINK-5025,1 53920U 22119AL  22359.58334491 -.00006709  00000-0 -40428-3 0  9997,2 53920  53.2145 166.7131 0001691  99.3237 185.8758 15.08797370  1309,6918.011,95.44,541.0459999999998,538.706,0.0
53920.0,STARLINK-5025,PAYLOAD,2022-12-25 22:00:00,15.08786393,0.0001558,53.2147,165.2182,91.201,205.5425,0.0041777,0.00066732,0.0,0 STARLINK-5025,1 53920U 22119AL  22359.91667824  .00066732  00000-0  41777-2 0  9990,2 53920  53.2147 165.2182 0001558  91.2010 205.5425 15.08786393 14817,6918.044,95.441,540.987,538.831,0.0
53920.0,STARLINK-5025,PAYLOAD,2022-12-26 00:00:00,15.08819041,0.0001499,53.2145,164.8437,90.891,298.7319,0.00075673,0.00011769,0.0,0 STARLINK-5025,1 53920U 22119AL  22360.00001157  .00011769  00000-0  75673-3 0  9996,2 53920  53.2145 164.8437 0001499  90.8910 298.7319 15.08819041  1304,6917.944,95.439,540.846,538.7719999999998,0.0
53920.0,STARLINK-5025,PAYLOAD,2022-12-26 14:00:01,15.08863656,0.000147,53.2152,162.2242,98.1111,221.7642,-0.00012422,-2.266e-05,0.0,0 STARLINK-5025,1 53920U 22119AL  22360.58334491 -.00002266  00000-0 -12422-3 0  9996,2 53920  53.2152 162.2242 0001470  98.1111 221.7642 15.08863656 14918,6917.808000000001,95.436,540.69,538.656,0.0
53920.0,STARLINK-5025,PAYLOAD,2022-12-27 00:00:00,15.08883191,0.0001398,53.2152,160.3545,87.8511,336.5517,-0.00169,-0.00027115,0.0,0 STARLINK-5025,1 53920U 22119AL  22361.00001157 -.00027115  00000-0 -16900-2 0  9998,2 53920  53.2152 160.3545 0001398  87.8511 336.5517 15.08883191  1302,6917.748000000001,95.435,540.58,538.646,0.0
53920.0,STARLINK-5025,PAYLOAD,2022-12-27 04:29:06,15.08853528,0.0001332,53.2162,159.514,101.5717,258.5425,0.00015026,2.105e-05,0.0,0 STARLINK-5025,1 53920U 22119AL  22361.18688010  .00002105  00000-0  15026-3 0  9995,2 53920  53.2162 159.5140 0001332 101.5717 258.5425 15.08853528 15008,6917.839,95.437,540.625,538.783,0.0
53920.0,STARLINK-5025,PAYLOAD,2022-12-27 10:50:39,15.08851265,0.0001355,53.2159,158.3243,108.0499,252.0641,0.00014399,2.005e-05,0.0,0 STARLINK-5025,1 53920U 22119AL  22361.45184038  .00002005  00000-0  14399-3 0  9997,2 53920  53.2159 158.3243 0001355 108.0499 252.0641 15.08851265 15464,6917.846,95.437,540.648,538.774,0.0
53920.0,STARLINK-5025,PAYLOAD,2022-12-27 17:12:11,15.08839892,0.0001568,53.2187,157.136,95.2418,264.8753,0.00023187,3.404e-05,0.0,0 STARLINK-5025,1 53920U 22119AL  22361.71680477  .00003404  00000-0  23187-3 0  9993,2 53920  53.2187 157.1360 0001568  95.2418 264.8753 15.08839892 15081,6917.880999999999,95.438,540.83,538.661,0.0
53920.0,STARLINK-5025,PAYLOAD,2022-12-27 21:58:21,15.08837464,0.0001523,53.2172,156.2441,92.1927,267.92400000000004,0.00025459,3.766e-05,0.0,0 STARLINK-5025,1 53920U 22119AL  22361.91552500  .00003766  00000-0  25459-3 0  9995,2 53920  53.2172 156.2441 0001523  92.1927 267.9240 15.08837464 15535,6917.888000000001,95.438,540.807,538.7,0.0
53920.0,STARLINK-5025,PAYLOAD,2022-12-28 13:52:13,15.08841639,0.0001559,53.2157,153.268,99.8991,260.2177,3.3023e-05,2.38e-06,0.0,0 STARLINK-5025,1 53920U 22119AL  22362.57792893  .00000238  00000-0  33023-4 0  9997,2 53920  53.2157 153.2680 0001559  99.8991 260.2177 15.08841639 15213,6917.875,95.437,540.819,538.6619999999998,0.0
53920.0,STARLINK-5025,PAYLOAD,2022-12-29 10:32:14,15.08835364,0.0001137999999999,53.2171,149.4042,88.4833,271.629,-0.00018452,-3.223e-05,0.0,0 STARLINK-5025,1 53920U 22119AL  22363.43905850 -.00003223  00000-0 -18452-3 0  9999,2 53920  53.2171 149.4042 0001138  88.4833 271.6290 15.08835364 15344,6917.895,95.438,540.547,538.972,0.0
53920.0,STARLINK-5025,PAYLOAD,2022-12-29 20:04:33,15.08830624,0.000125,53.2168,147.6196,93.126,266.9876,-0.00014492,-2.593e-05,0.0,0 STARLINK-5025,1 53920U 22119AL  22363.83650121 -.00002593  00000-0 -14492-3 0  9990,2 53920  53.2168 147.6196 0001250  93.1260 266.9876 15.08830624 15826,6917.909000000002,95.438,540.639,538.909,0.0
53920.0,STARLINK-5025,PAYLOAD,2022-12-30 16:44:33,15.08836595,0.0001123,53.217,143.754,86.4892,273.6229,0.00011673,1.57e-05,0.0,0 STARLINK-5025,1 53920U 22119AL  22364.69761103  .00001570  00000-0  11673-3 0  9998,2 53920  53.2170 143.7540 0001123  86.4892 273.6229 15.08836595 15532,6917.891,95.438,540.533,538.979,0.0
53920.0,STARLINK-5025,PAYLOAD,2022-12-31 02:16:51,15.08847755,0.0001169,53.2172,141.9698,85.7886,274.324,0.00019137,2.7600000000000014e-05,0.0,0 STARLINK-5025,1 53920U 22119AL  22365.09504207  .00002760  00000-0  19137-3 0  9998,2 53920  53.2172 141.9698 0001169  85.7886 274.3240 15.08847755 15590,6917.857,95.437,540.53,538.913,0.0
